CCSDS_OMM_VERS = 2.0
CREATION_DATE  = 
ORIGINATOR     = 

OBJECT_NAME    = CZ-12 R/B
OBJECT_ID      = 2026-013K
CENTER_NAME    = EARTH
REF_FRAME      = TEME
TIME_SYSTEM    = UTC
MEAN_ELEMENT_THEORY = SGP/SGP4

EPOCH          = 2026-01-29T13:02:05.395200
MEAN_MOTION    = 14.14454871
ECCENTRICITY   = .00690603
INCLINATION    = 49.9902
RA_OF_ASC_NODE = 142.8353
ARG_OF_PERICENTER = 163.0056
MEAN_ANOMALY   = 197.3188

EPHEMERIS_TYPE = 0
CLASSIFICATION_TYPE = U
NORAD_CAT_ID   = 67531
ELEMENT_SET_NO = 999
REV_AT_EPOCH   = 144
BSTAR          = .21650671E-3
MEAN_MOTION_DOT = .271E-5
MEAN_MOTION_DDOT = 0

CCSDS_OMM_VERS = 2.0
CREATION_DATE  = 
ORIGINATOR     = 

OBJECT_NAME    = STARLINK-36587
OBJECT_ID      = 2026-014A
CENTER_NAME    = EARTH
REF_FRAME      = TEME
TIME_SYSTEM    = UTC
MEAN_ELEMENT_THEORY = SGP/SGP4

EPOCH          = 2026-01-27T14:00:04.000032
MEAN_MOTION    = 16.01249261
ECCENTRICITY   = .0001161
INCLINATION    = 97.2829
RA_OF_ASC_NODE = 270.2144
ARG_OF_PERICENTER = 77.4846
MEAN_ANOMALY   = 315.3904

EPHEMERIS_TYPE = 0
CLASSIFICATION_TYPE = U
NORAD_CAT_ID   = 67532
ELEMENT_SET_NO = 999
REV_AT_EPOCH   = 208
BSTAR          = -.23159E-2
MEAN_MOTION_DOT = -.1253496E-1
MEAN_MOTION_DDOT = .50499E-3

CCSDS_OMM_VERS = 2.0
CREATION_DATE  = 
ORIGINATOR     = 

OBJECT_NAME    = STARLINK-36417
OBJECT_ID      = 2026-014B
CENTER_NAME    = EARTH
REF_FRAME      = TEME
TIME_SYSTEM    = UTC
MEAN_ELEMENT_THEORY = SGP/SGP4

EPOCH          = 2026-01-27T14:00:04.000032
MEAN_MOTION    = 16.01310636
ECCENTRICITY   = .0001184
INCLINATION    = 97.2828
RA_OF_ASC_NODE = 270.2146
ARG_OF_PERICENTER = 84.6985
MEAN_ANOMALY   = 309.1240

EPHEMERIS_TYPE = 0
CLASSIFICATION_TYPE = U
NORAD_CAT_ID   = 67533
ELEMENT_SET_NO = 999
REV_AT_EPOCH   = 208
BSTAR          = -.23013E-2
MEAN_MOTION_DOT = -.1250029E-1
MEAN_MOTION_DDOT = .50276E-3

CCSDS_OMM_VERS = 2.0
CREATION_DATE  = 
ORIGINATOR     = 

OBJECT_NAME    = STARLINK-36576
OBJECT_ID      = 2026-014C
CENTER_NAME    = EARTH
REF_FRAME      = TEME
TIME_SYSTEM    = UTC
MEAN_ELEMENT_THEORY = SGP/SGP4

EPOCH          = 2026-01-27T14:00:04.000032
MEAN_MOTION    = 16.01431442
ECCENTRICITY   = .0001228
INCLINATION    = 97.2829
RA_OF_ASC_NODE = 270.2150
ARG_OF_PERICENTER = 83.1268
MEAN_ANOMALY   = 312.0805

EPHEMERIS_TYPE = 0
CLASSIFICATION_TYPE = U
NORAD_CAT_ID   = 67534
ELEMENT_SET_NO = 999
REV_AT_EPOCH   = 208
BSTAR          = -.22827E-2
MEAN_MOTION_DOT = -.1248588E-1
MEAN_MOTION_DDOT = .50238E-3

CCSDS_OMM_VERS = 2.0
CREATION_DATE  = 
ORIGINATOR     = 

OBJECT_NAME    = STARLINK-36574
OBJECT_ID      = 2026-014D
CENTER_NAME    = EARTH
REF_FRAME      = TEME
TIME_SYSTEM    = UTC
MEAN_ELEMENT_THEORY = SGP/SGP4

EPOCH          = 2026-01-27T14:00:04.000032
MEAN_MOTION    = 16.01604487
ECCENTRICITY   = .0001169
INCLINATION    = 97.2829
RA_OF_ASC_NODE = 270.2156
ARG_OF_PERICENTER = 69.8731
MEAN_ANOMALY   = 327.1726

EPHEMERIS_TYPE = 0
CLASSIFICATION_TYPE = U
NORAD_CAT_ID   = 67535
ELEMENT_SET_NO = 999
REV_AT_EPOCH   = 208
BSTAR          = -.22396E-2
MEAN_MOTION_DOT = -.1237431E-1
MEAN_MOTION_DDOT = .49509E-3

CCSDS_OMM_VERS = 2.0
CREATION_DATE  = 
ORIGINATOR     = 

OBJECT_NAME    = STARLINK-36572
OBJECT_ID      = 2026-014E
CENTER_NAME    = EARTH
REF_FRAME      = TEME
TIME_SYSTEM    = UTC
MEAN_ELEMENT_THEORY = SGP/SGP4

EPOCH          = 2026-01-27T14:00:04.000032
MEAN_MOTION    = 16.01768680
ECCENTRICITY   = .0001162
INCLINATION    = 97.2828
RA_OF_ASC_NODE = 270.2165
ARG_OF_PERICENTER = 71.7563
MEAN_ANOMALY   = 327.0094

EPHEMERIS_TYPE = 0
CLASSIFICATION_TYPE = U
NORAD_CAT_ID   = 67536
ELEMENT_SET_NO = 999
REV_AT_EPOCH   = 208
BSTAR          = -.2217E-2
MEAN_MOTION_DOT = -.1236577E-1
MEAN_MOTION_DDOT = .49539E-3

CCSDS_OMM_VERS = 2.0
CREATION_DATE  = 
ORIGINATOR     = 

OBJECT_NAME    = STARLINK-36561
OBJECT_ID      = 2026-014F
CENTER_NAME    = EARTH
REF_FRAME      = TEME
TIME_SYSTEM    = UTC
MEAN_ELEMENT_THEORY = SGP/SGP4

EPOCH          = 2026-01-27T14:00:04.000032
MEAN_MOTION    = 16.01895094
ECCENTRICITY   = .0001094
INCLINATION    = 97.2823
RA_OF_ASC_NODE = 270.2171
ARG_OF_PERICENTER = 77.1944
MEAN_ANOMALY   = 323.0233

EPHEMERIS_TYPE = 0
CLASSIFICATION_TYPE = U
NORAD_CAT_ID   = 67537
ELEMENT_SET_NO = 999
REV_AT_EPOCH   = 208
BSTAR          = -.21888E-2
MEAN_MOTION_DOT = -.122988E-1
MEAN_MOTION_DDOT = .49115E-3

CCSDS_OMM_VERS = 2.0
CREATION_DATE  = 
ORIGINATOR     = 

OBJECT_NAME    = STARLINK-36397
OBJECT_ID      = 2026-014G
CENTER_NAME    = EARTH
REF_FRAME      = TEME
TIME_SYSTEM    = UTC
MEAN_ELEMENT_THEORY = SGP/SGP4

EPOCH          = 2026-01-27T14:00:04.000032
MEAN_MOTION    = 16.02004070
ECCENTRICITY   = .0001179
INCLINATION    = 97.2822
RA_OF_ASC_NODE = 270.2176
ARG_OF_PERICENTER = 83.9203
MEAN_ANOMALY   = 317.6165

EPHEMERIS_TYPE = 0
CLASSIFICATION_TYPE = U
NORAD_CAT_ID   = 67538
ELEMENT_SET_NO = 999
REV_AT_EPOCH   = 208
BSTAR          = -.21576E-2
MEAN_MOTION_DOT = -.1220176E-1
MEAN_MOTION_DDOT = .48461E-3

CCSDS_OMM_VERS = 2.0
CREATION_DATE  = 
ORIGINATOR     = 

OBJECT_NAME    = STARLINK-36573
OBJECT_ID      = 2026-014H
CENTER_NAME    = EARTH
REF_FRAME      = TEME
TIME_SYSTEM    = UTC
MEAN_ELEMENT_THEORY = SGP/SGP4

EPOCH          = 2026-01-27T14:00:04.000032
MEAN_MOTION    = 16.02150721
ECCENTRICITY   = .0001121
INCLINATION    = 97.2823
RA_OF_ASC_NODE = 270.2182
ARG_OF_PERICENTER = 80.4648
MEAN_ANOMALY   = 322.6384

EPHEMERIS_TYPE = 0
CLASSIFICATION_TYPE = U
NORAD_CAT_ID   = 67539
ELEMENT_SET_NO = 999
REV_AT_EPOCH   = 208
BSTAR          = -.21467E-2
MEAN_MOTION_DOT = -.1224304E-1
MEAN_MOTION_DDOT = .48847E-3

CCSDS_OMM_VERS = 2.0
CREATION_DATE  = 
ORIGINATOR     = 

OBJECT_NAME    = STARLINK-36585
OBJECT_ID      = 2026-014J
CENTER_NAME    = EARTH
REF_FRAME      = TEME
TIME_SYSTEM    = UTC
MEAN_ELEMENT_THEORY = SGP/SGP4

EPOCH          = 2026-01-27T14:00:04.000032
MEAN_MOTION    = 16.02265949
ECCENTRICITY   = .0001132
INCLINATION    = 97.2818
RA_OF_ASC_NODE = 270.2187
ARG_OF_PERICENTER = 82.3002
MEAN_ANOMALY   = 322.1998

EPHEMERIS_TYPE = 0
CLASSIFICATION_TYPE = U
NORAD_CAT_ID   = 67540
ELEMENT_SET_NO = 999
REV_AT_EPOCH   = 208
BSTAR          = -.21106E-2
MEAN_MOTION_DOT = -.1211935E-1
MEAN_MOTION_DDOT = .48002E-3

CCSDS_OMM_VERS = 2.0
CREATION_DATE  = 
ORIGINATOR     = 

OBJECT_NAME    = STARLINK-36579
OBJECT_ID      = 2026-014K
CENTER_NAME    = EARTH
REF_FRAME      = TEME
TIME_SYSTEM    = UTC
MEAN_ELEMENT_THEORY = SGP/SGP4

EPOCH          = 2026-01-27T14:00:04.000032
MEAN_MOTION    = 16.02435444
ECCENTRICITY   = .0001157
INCLINATION    = 97.2821
RA_OF_ASC_NODE = 270.2195
ARG_OF_PERICENTER = 76.4604
MEAN_ANOMALY   = 329.7948

EPHEMERIS_TYPE = 0
CLASSIFICATION_TYPE = U
NORAD_CAT_ID   = 67541
ELEMENT_SET_NO = 999
REV_AT_EPOCH   = 208
BSTAR          = -.20896E-2
MEAN_MOTION_DOT = -.1211772E-1
MEAN_MOTION_DDOT = .48084E-3

CCSDS_OMM_VERS = 2.0
CREATION_DATE  = 
ORIGINATOR     = 

OBJECT_NAME    = STARLINK-35934
OBJECT_ID      = 2026-014L
CENTER_NAME    = EARTH
REF_FRAME      = TEME
TIME_SYSTEM    = UTC
MEAN_ELEMENT_THEORY = SGP/SGP4

EPOCH          = 2026-01-27T14:00:04.000032
MEAN_MOTION    = 16.02621012
ECCENTRICITY   = .0001171
INCLINATION    = 97.2821
RA_OF_ASC_NODE = 270.2203
ARG_OF_PERICENTER = 79.0946
MEAN_ANOMALY   = 329.0662

EPHEMERIS_TYPE = 0
CLASSIFICATION_TYPE = U
NORAD_CAT_ID   = 67542
ELEMENT_SET_NO = 999
REV_AT_EPOCH   = 207
BSTAR          = -.20566E-2
MEAN_MOTION_DOT = -.1205711E-1
MEAN_MOTION_DDOT = .47743E-3

