CZ-12 R/B               
1 67531U 26013K   26029.54311800  .00000271  00000+0  21651-3 0  9992
2 67531  49.9902 142.8353 0069060 163.0056 197.3188 14.14454871  1440
STARLINK-36587          
1 67532U 26014A   26027.58337963 -.01253496  50499-3 -23159-2 0  9991
2 67532  97.2829 270.2144 0001161  77.4846 315.3904 16.01249261  2084
STARLINK-36417          
1 67533U 26014B   26027.58337963 -.01250029  50276-3 -23013-2 0  9993
2 67533  97.2828 270.2146 0001184  84.6985 309.1240 16.01310636  2084
STARLINK-36576          
1 67534U 26014C   26027.58337963 -.01248588  50238-3 -22827-2 0  9991
2 67534  97.2829 270.2150 0001228  83.1268 312.0805 16.01431442  2087
STARLINK-36574          
1 67535U 26014D   26027.58337963 -.01237431  49509-3 -22396-2 0  9997
2 67535  97.2829 270.2156 0001169  69.8731 327.1726 16.01604487  2084
STARLINK-36572          
1 67536U 26014E   26027.58337963 -.01236577  49539-3 -22170-2 0  9991
2 67536  97.2828 270.2165 0001162  71.7563 327.0094 16.01768680  2085
STARLINK-36561          
1 67537U 26014F   26027.58337963 -.01229880  49115-3 -21888-2 0  9996
2 67537  97.2823 270.2171 0001094  77.1944 323.0233 16.01895094  2086
STARLINK-36397          
1 67538U 26014G   26027.58337963 -.01220176  48461-3 -21576-2 0  9993
2 67538  97.2822 270.2176 0001179  83.9203 317.6165 16.02004070  2088
STARLINK-36573          
1 67539U 26014H   26027.58337963 -.01224304  48847-3 -21467-2 0  9998
2 67539  97.2823 270.2182 0001121  80.4648 322.6384 16.02150721  2083
STARLINK-36585          
1 67540U 26014J   26027.58337963 -.01211935  48002-3 -21106-2 0  9999
2 67540  97.2818 270.2187 0001132  82.3002 322.1998 16.02265949  2086
STARLINK-36579          
1 67541U 26014K   26027.58337963 -.01211772  48084-3 -20896-2 0  9994
2 67541  97.2821 270.2195 0001157  76.4604 329.7948 16.02435444  2086
STARLINK-35934          
1 67542U 26014L   26027.58337963 -.01205711  47743-3 -20566-2 0  9996
2 67542  97.2821 270.2203 0001171  79.0946 329.0662 16.02621012  2074
